INTELSAT 902 (IS-902)   
1 26900U 01039A   26178.51120612 -.00000278  00000+0  00000+0 0  9998
2 26900   6.1422  71.6579 0004203  25.0587 312.8320  1.00271191 90791
INTELSAT 904 (IS-904)   
1 27380U 02007A   26178.94266866 -.00000220  00000+0  00000+0 0  9993
2 27380   6.9460  69.0571 0006514  12.0596 142.8053  1.00272834 51875
DIRECTV 5 (TEMPO 1)     
1 27426U 02023A   26178.71317588 -.00000050  00000+0  00000+0 0  9996
2 27426   4.9040  75.1832 0003552  25.8033 321.4730  1.00271623 88224
INTELSAT 905 (IS-905)   
1 27438U 02027A   26178.77909064  .00000099  00000+0  00000+0 0  9997
2 27438   6.7793  69.6743 0004148  27.8121 321.6616  1.00272433 51464
GALAXY 3C (G-3C)        
1 27445U 02030A   26178.85869536 -.00000145  00000+0  00000+0 0  9990
2 27445   3.7595  77.8420 0001993  25.9798  26.4362  1.00272390 46606
INTELSAT 906 (IS-906)   
1 27513U 02041A   26178.93830796  .00000019  00000+0  00000+0 0  9992
2 27513   5.8290  72.7897 0004191   8.2469 236.9384  1.00272389 87134
GALAXY 13 (HORIZONS-1)  
1 27954U 03044A   26178.70528918  .00000143  00000+0  00000+0 0  9998
2 27954   1.4457  83.7321 0001703   5.1309 290.8369  1.00270066 46675
INTELSAT 10-02          
1 28358U 04022A   26178.94864868  .00000001  00000+0  00000+0 0  9990
2 28358   0.0266 286.8644 0000393 223.2020 106.4939  1.00271037 80669
DIRECTV 8               
1 28659U 05019A   26178.64007432  .00000013  00000+0  00000+0 0  9997
2 28659   0.0233  71.2068 0003306  28.9188 286.9982  1.00271830 77170
GALAXY 28 (G-28)        
1 28702U 05022A   26178.94344866 -.00000192  00000+0  00000+0 0  9997
2 28702   3.3254  78.8022 0002271  18.4869 131.2961  1.00270822 52083
GALAXY 16 (G-16)        
1 29236U 06023A   26178.92921300 -.00000115  00000+0  00000+0 0  9999
2 29236   0.0437 119.0873 0002884 327.6028  64.8490  1.00272053 73086
DIRECTV 9S              
1 29494U 06043A   26178.92877965 -.00000104  00000+0  00000+0 0  9992
2 29494   2.4478  80.7841 0005436  19.6036  48.8039  1.00271908 51495
GALAXY 17 (G-17)        
1 31307U 07016B   26178.93198633 -.00000197  00000+0  00000+0 0  9990
2 31307   2.9985  79.7731 0004614  21.0274  65.7361  1.00271013 69912
INTELSAT 11 (IS-11)     
1 32253U 07044B   26178.93759914  .00000053  00000+0  00000+0 0  9997
2 32253   3.5927  78.5468 0003132  84.7022 168.8665  0.99047669 68557
HORIZONS-2              
1 32388U 07063B   26178.93423968 -.00000244  00000+0  00000+0 0  9997
2 32388   2.6291  80.5028 0004171   7.6469  90.4098  1.00271005 67924
DIRECTV 11              
1 32729U 08013A   26178.64397434 -.00000113  00000+0  00000+0 0  9993
2 32729   0.0112 258.4605 0000314 144.7269   5.2047  1.00267946 45697
GALAXY 18 (G-18)        
1 32951U 08024A   26178.71057587  .00000000  00000+0  00000+0 0  9996
2 32951   0.0267  25.5462 0003245  75.0725 308.0096  1.00270084 45952
GALAXY 19 (G-19)        
1 33376U 08045A   26178.92964633 -.00000127  00000+0  00000+0 0  9994
2 33376   0.0411 260.5520 0002954 206.3110  46.8396  1.00271181 65012
FM-5                    
1 35493U 09034A   26178.86051537 -.00000188  00000+0  00000+0 0  9995
2 35493   0.0283 286.7938 0000989  62.7837 150.0099  1.00271663 46753
INTELSAT 14 (IS-14)     
1 36097U 09064A   26178.86866206 -.00000262  00000+0  00000+0 0  9999
2 36097   0.0141  30.3425 0002706  66.7809  86.5718  1.00272142 60719
INTELSAT 15 (IS-15)     
1 36106U 09067A   26178.60935490 -.00000173  00000+0  00000+0 0  9998
2 36106   0.0154  49.2465 0002565  51.9287 119.0589  1.00271415 41333
DIRECTV 12              
1 36131U 09075A   26178.59242464 -.00000092  00000+0  00000+0 0  9995
2 36131   0.0078  82.4238 0000311  15.3948 288.4292  1.00270253 46659
INTELSAT 16 (IS-16)     
1 36397U 10006A   26178.93371968 -.00000233  00000+0  00000+0 0  9992
2 36397   0.0150  41.9552 0002450  68.8092  65.2118  1.00272004 59762
XM-5                    
1 37185U 10053A   26178.92600632 -.00000011  00000+0  00000+0 0  9996
2 37185   0.0667 270.6117 0002507 284.1303 299.4564  1.00272225 57590
INTELSAT 17 (IS-17)     
1 37238U 10065B   26178.93890615  .00000011  00000+0  00000+0 0  9990
2 37238   0.0139  81.0663 0002294  19.9161 219.0613  1.00268763 53357
INTELSAT 28 (IS-28)     
1 37392U 11016A   26178.94258199 -.00000215  00000+0  00000+0 0  9991
2 37392   1.8334  82.5008 0004046  13.4237 127.7170  1.00271332 53396
INTELSAT 18 (IS-18)     
1 37834U 11056A   26178.84192323  .00000065  00000+0  00000+0 0  9993
2 37834   0.0162 327.0871 0002106 134.7536 297.1977  1.00273463 53918
INTELSAT 22 (IS-22)     
1 38098U 12011A   26178.94440131  .00000000  00000+0  00000+0 0  9991
2 38098   0.0408  58.5967 0001798  72.9186 196.6265  1.00270733  7296
INTELSAT 19 (IS-19)     
1 38356U 12030A   26178.83914988 -.00000045  00000+0  00000+0 0  9993
2 38356   0.0153  27.8449 0003370  75.1062 281.0886  1.00271413 50551
INTELSAT 20 (IS-20)     
1 38740U 12043A   26178.94110499  .00000000  00000+0  00000+0 0  9991
2 38740   0.0416  72.1404 0002270 109.9101 141.2836  1.00268868 50857
INTELSAT 21 (IS-21)     
1 38749U 12045A   26178.86606205 -.00000273  00000+0  00000+0 0  9991
2 38749   0.0277  71.6796 0001874  38.8799  59.1928  1.00271328 50631
